*******************************************************************************
JPL/HORIZONS                65803 Didymos (PRIMARY BODY center)       920065803
Updated: 2022-Mar-03       Solution (s104 v2) date: 2021-Sep-28
 
This is a precomputed trajectory for the -primary- body of the 65803 Didymos 
system. To use it as a coordinate origin, set center to "@ 920065803".
Related objects: 

  DART spacecraft           :      -135 (mission ground navigation)
  Didymos system barycenter :  20065803 (mission baseline)
                                 65803; (latest JPL ground-based solution)
  Dimorphos satellite center: 120065803 (target of DART mission)

This trajectory is the baseline ephemeris used for mission planning and 
navigation by the DART mission. It fits 61 eclipse and occultation mutual 
events over 2003-2021. For discussion, see:

https://ssd.jpl.nasa.gov/ftp/eph/small_bodies/dart/dimorphos/IOM_392R-21-008.pdf
https://ssd.jpl.nasa.gov/ftp/eph/small_bodies/dart/dimorphos/IOM_392R-21-010.pdf

This ephemeris will be corrected in-flight by DART as it approaches the system.
Those corrections may not be immediately available here.
*******************************************************************************


*******************************************************************************
Ephemeris / WWW_USER Mon Mar  6 16:34:32 2023 Pasadena, USA      / Horizons
*******************************************************************************
Target body name: Didymos (primary body) (920065803) {source: DART_merged}
Center body name: Sun (10)                        {source: DART_merged}
Center-site name: BODY CENTER
*******************************************************************************
Start time      : A.D. 2021-Jan-02 00:00:00.0000 TDB
Stop  time      : A.D. 2023-Jun-01 00:00:00.0000 TDB
Step-size       : 1440 minutes
*******************************************************************************
Center geodetic : 0.0, 0.0, 0.0                   {E-lon(deg),Lat(deg),Alt(km)}
Center cylindric: 0.0, 0.0, 0.0                   {E-lon(deg),Dxy(km),Dz(km)}
Center radii    : 696000.0, 696000.0, 696000.0 km {Equator_a, b, pole_c}
Keplerian GM    : 1.3271244004127939E+11 km^3/s^2
Output units    : KM-S, deg, Julian Day Number (Tp)
Calendar mode   : Mixed Julian/Gregorian
Output type     : GEOMETRIC osculating elements
Output format   : 10
Reference frame : Ecliptic of J2000.0
*******************************************************************************
JDTDB
   EC    QR   IN
   OM    W    Tp
   N     MA   TA
   A     AD   PR
*******************************************************************************
$$SOE
2459957.500000000 = A.D. 2023-Jan-13 00:00:00.0000 TDB 
 EC= 3.832945026989787E-01 QR= 1.515348156287440E+08 IN= 3.414166942003459E+00
 OM= 7.299217695865549E+01 W = 3.195560809404221E+02 Tp=  2459874.290076234378
 N = 5.419092220009977E-06 MA= 3.895968244366431E+01 TA= 7.878970587338812E+01
 A = 2.457166610187975E+08 AD= 3.398985064088510E+08 PR= 6.643179067348243E+07
2459958.500000000 = A.D. 2023-Jan-14 00:00:00.0000 TDB 
 EC= 3.832939147060851E-01 QR= 1.515349391040760E+08 IN= 3.414164002288571E+00
 OM= 7.299213721188097E+01 W = 3.195562011921663E+02 Tp=  2459874.290093967225
 N = 5.419093346723825E-06 MA= 3.942789190641251E+01 TA= 7.947284521933453E+01
 A = 2.457166269599176E+08 AD= 3.398983148157592E+08 PR= 6.643177686127923E+07
2459959.500000000 = A.D. 2023-Jan-15 00:00:00.0000 TDB 
 EC= 3.832933533351530E-01 QR= 1.515350633493400E+08 IN= 3.414161174287584E+00
 OM= 7.299209803468678E+01 W = 3.195563226273342E+02 Tp=  2459874.290113726631
 N = 5.419094081238459E-06 MA= 3.989609772777068E+01 TA= 8.015029240018043E+01
 A = 2.457166047566416E+08 AD= 3.398981461639432E+08 PR= 6.643176785698598E+07
2459960.500000000 = A.D. 2023-Jan-16 00:00:00.0000 TDB 
 EC= 3.832928174012640E-01 QR= 1.515351883437324E+08 IN= 3.414158457166490E+00
 OM= 7.299205948063697E+01 W = 3.195564451355225E+02 Tp=  2459874.290135456249
 N = 5.419094440288796E-06 MA= 4.036429995676063E+01 TA= 8.082210640564941E+01
 A = 2.457165939030901E+08 AD= 3.398979994624478E+08 PR= 6.643176345544824E+07
2459961.500000000 = A.D. 2023-Jan-17 00:00:00.0000 TDB 
 EC= 3.832923057127706E-01 QR= 1.515353140726151E+08 IN= 3.414155849584673E+00
 OM= 7.299202159596740E+01 W = 3.195565686157082E+02 Tp=  2459874.290159098338
 N = 5.419094440367705E-06 MA= 4.083249864737957E+01 TA= 8.148834635497265E+01
 A = 2.457165939007048E+08 AD= 3.398978737287945E+08 PR= 6.643176345448092E+07
2459962.500000000 = A.D. 2023-Jan-18 00:00:00.0000 TDB 
 EC= 3.832918170791473E-01 QR= 1.515354405258971E+08 IN= 3.414153349764301E+00
 OM= 7.299198441994520E+01 W = 3.195566929747387E+02 Tp=  2459874.290184593294
 N = 5.419094097709336E-06 MA= 4.130069385855750E+01 TA= 8.214907144761763E+01
 A = 2.457166042587517E+08 AD= 3.398977679916064E+08 PR= 6.643176765507225E+07
2459963.500000000 = A.D. 2023-Jan-19 00:00:00.0000 TDB 
 EC= 3.832913503189435E-01 QR= 1.515355676967309E+08 IN= 3.414150955555730E+00
 OM= 7.299194798526889E+01 W = 3.195568181262239E+02 Tp=  2459874.290211877786
 N = 5.419093428254194E-06 MA= 4.176888565378596E+01 TA= 8.280434091632829E+01
 A = 2.457166244953766E+08 AD= 3.398976812940222E+08 PR= 6.643177586181182E+07
2459964.500000000 = A.D. 2023-Jan-20 00:00:00.0000 TDB 
 EC= 3.832909042672612E-01 QR= 1.515356955805120E+08 IN= 3.414148664497918E+00
 OM= 7.299191231848683E+01 W = 3.195569439897666E+02 Tp=  2459874.290240886621
 N = 5.419092447604293E-06 MA= 4.223707410052818E+01 TA= 8.345421398247629E+01
 A = 2.457166541389597E+08 AD= 3.398976126974074E+08 PR= 6.643178788343998E+07
2459965.500000000 = A.D. 2023-Jan-21 00:00:00.0000 TDB 
 EC= 3.832904777823700E-01 QR= 1.515358241741206E+08 IN= 3.414146473873461E+00
 OM= 7.299187744041986E+01 W = 3.195570704904327E+02 Tp=  2459874.290271552280
 N = 5.419091170976590E-06 MA= 4.270525926951282E+01 TA= 8.409874981372789E+01
 A = 2.457166927295235E+08 AD= 3.398975612849264E+08 PR= 6.643180353341857E+07
2459966.500000000 = A.D. 2023-Jan-22 00:00:00.0000 TDB 
 EC= 3.832900697512817E-01 QR= 1.515359534753729E+08 IN= 3.414144380758188E+00
 OM= 7.299184336657719E+01 W = 3.195571975583991E+02 Tp=  2459874.290303806309
 N = 5.419089613158982E-06 MA= 4.317344123398481E+01 TA= 8.473800748401550E+01
 A = 2.457167398200620E+08 AD= 3.398975261647511E+08 PR= 6.643182263047004E+07
2459967.500000000 = A.D. 2023-Jan-23 00:00:00.0000 TDB 
 EC= 3.832896790942422E-01 QR= 1.515360834826286E+08 IN= 3.414142382065462E+00
 OM= 7.299181010756375E+01 W = 3.195573251287103E+02 Tp=  2459874.290337579325
 N = 5.419087788472116E-06 MA= 4.364162006896616E+01 TA= 8.537204593578478E+01
 A = 2.457167949776950E+08 AD= 3.398975064727614E+08 PR= 6.643184499904553E+07
2459968.500000000 = A.D. 2023-Jan-24 00:00:00.0000 TDB 
 EC= 3.832893047681736E-01 QR= 1.515362141945136E+08 IN= 3.414140474585657E+00
 OM= 7.299177766947214E+01 W = 3.195574531410981E+02 Tp=  2459874.290372801479
 N = 5.419085710738910E-06 MA= 4.410979585056758E+01 TA= 8.600092394448129E+01
 A = 2.457168577845888E+08 AD= 3.398975013746639E+08 PR= 6.643187046969825E+07
2459969.500000000 = A.D. 2023-Jan-25 00:00:00.0000 TDB 
 EC= 3.832889457691608E-01 QR= 1.515363456097234E+08 IN= 3.414138655021154E+00
 OM= 7.299174605426064E+01 W = 3.195575815398248E+02 Tp=  2459874.290409401990
 N = 5.419083393262335E-06 MA= 4.457796865537134E+01 TA= 8.662470008522087E+01
 A = 2.457169278386281E+08 AD= 3.398975100675328E+08 PR= 6.643189887935585E+07
2459970.500000000 = A.D. 2023-Jan-26 00:00:00.0000 TDB 
 EC= 3.832886011340894E-01 QR= 1.515364777268770E+08 IN= 3.414136920017267E+00
 OM= 7.299171526011610E+01 W = 3.195577102735240E+02 Tp=  2459874.290447312407
 N = 5.419080848811642E-06 MA= 4.504613855990046E+01 TA= 8.724343270158197E+01
 A = 2.457170047538315E+08 AD= 3.398975317807859E+08 PR= 6.643193007148896E+07
2459971.500000000 = A.D. 2023-Jan-27 00:00:00.0000 TDB 
 EC= 3.832882699415529E-01 QR= 1.515366105444018E+08 IN= 3.414135266189510E+00
 OM= 7.299168528180029E+01 W = 3.195578392950256E+02 Tp=  2459874.290486463346
 N = 5.419078089616599E-06 MA= 4.551430564017962E+01 TA= 8.785717987644891E+01
 A = 2.457170881605257E+08 AD= 3.398975657766496E+08 PR= 6.643196389618184E+07
2459972.500000000 = A.D. 2023-Jan-28 00:00:00.0000 TDB 
 EC= 3.832879513121487E-01 QR= 1.515367440604361E+08 IN= 3.414133690147448E+00
 OM= 7.299165611098078E+01 W = 3.195579685611557E+02 Tp=  2459874.290526787750
 N = 5.419075127368799E-06 MA= 4.598246997138416E+01 TA= 8.846599940482535E+01
 A = 2.457171777053060E+08 AD= 3.398976113501759E+08 PR= 6.643200021011629E+07
2459973.500000000 = A.D. 2023-Jan-29 00:00:00.0000 TDB 
 EC= 3.832876444082740E-01 QR= 1.515368782727404E+08 IN= 3.414132188515532E+00
 OM= 7.299162773654605E+01 W = 3.195580980325118E+02 Tp=  2459874.290568219032
 N = 5.419071973229129E-06 MA= 4.645063162757406E+01 TA= 8.906994876853865E+01
 A = 2.457172730508100E+08 AD= 3.398976678288796E+08 PR= 6.643203887647987E+07
2459974.500000000 = A.D. 2023-Jan-30 00:00:00.0000 TDB 
 EC= 3.832873484335198E-01 QR= 1.515370131786137E+08 IN= 3.414130757951177E+00
 OM= 7.299160014490315E+01 W = 3.195582276732164E+02 Tp=  2459874.290610692464
 N = 5.419068637840230E-06 MA= 4.691879068149911E+01 TA= 8.966908511274562E+01
 A = 2.457173738753410E+08 AD= 3.398977345720682E+08 PR= 6.643207976481324E+07
2459975.500000000 = A.D. 2023-Jan-31 00:00:00.0000 TDB 
 EC= 3.832870626317665E-01 QR= 1.515371487748111E+08 IN= 3.414129395160359E+00
 OM= 7.299157332026064E+01 W = 3.195583574506522E+02 Tp=  2459874.290654145181
 N = 5.419065131342859E-06 MA= 4.738694720447086E+01 TA= 9.026346522416210E+01
 A = 2.457174798723733E+08 AD= 3.398978109699355E+08 PR= 6.643212275080942E+07
